[{"OBJECT_NAME":"ONEWEB-0509","OBJECT_ID":"2022-138Q","EPOCH":"2026-06-13T03:35:12.281280","MEAN_MOTION":13.19719273,"ECCENTRICITY":0.0001677,"INCLINATION":87.9175,"RA_OF_ASC_NODE":305.7689,"ARG_OF_PERICENTER":98.6818,"MEAN_ANOMALY":261.4505,"EPHEMERIS_TYPE":0,"CLASSIFICATION_TYPE":"U","NORAD_CAT_ID":54127,"ELEMENT_SET_NO":999,"REV_AT_EPOCH":17627,"BSTAR":-0.00014737,"MEAN_MOTION_DOT":-4.6e-07,"MEAN_MOTION_DDOT":0.0},{"OBJECT_NAME":"ONEWEB-0510","OBJECT_ID":"2022-138R","EPOCH":"2026-06-13T06:26:32.052192","MEAN_MOTION":13.20772459,"ECCENTRICITY":0.0002423,"INCLINATION":87.9191,"RA_OF_ASC_NODE":275.2167,"ARG_OF_PERICENTER":97.1714,"MEAN_ANOMALY":262.9695,"EPHEMERIS_TYPE":0,"CLASSIFICATION_TYPE":"U","NORAD_CAT_ID":54128,"ELEMENT_SET_NO":999,"REV_AT_EPOCH":17876,"BSTAR":7.0592e-05,"MEAN_MOTION_DOT":4.2e-07,"MEAN_MOTION_DDOT":0.0},{"OBJECT_NAME":"ONEWEB-0511","OBJECT_ID":"2022-138S","EPOCH":"2026-06-13T03:30:41.080320","MEAN_MOTION":13.19726084,"ECCENTRICITY":0.0001775,"INCLINATION":87.9171,"RA_OF_ASC_NODE":305.7724,"ARG_OF_PERICENTER":89.027,"MEAN_ANOMALY":271.1066,"EPHEMERIS_TYPE":0,"CLASSIFICATION_TYPE":"U","NORAD_CAT_ID":54129,"ELEMENT_SET_NO":999,"REV_AT_EPOCH":17630,"BSTAR":1.1099000000000002e-05,"MEAN_MOTION_DOT":1.7e-07,"MEAN_MOTION_DDOT":0.0},{"OBJECT_NAME":"ONEWEB-0512","OBJECT_ID":"2022-138T","EPOCH":"2026-06-12T21:51:46.232928","MEAN_MOTION":13.19724572,"ECCENTRICITY":0.0001529,"INCLINATION":87.9165,"RA_OF_ASC_NODE":305.8246,"ARG_OF_PERICENTER":92.0655,"MEAN_ANOMALY":268.0653,"EPHEMERIS_TYPE":0,"CLASSIFICATION_TYPE":"U","NORAD_CAT_ID":54130,"ELEMENT_SET_NO":999,"REV_AT_EPOCH":17624,"BSTAR":-0.00021695000000000002,"MEAN_MOTION_DOT":-7.4e-07,"MEAN_MOTION_DDOT":0.0},{"OBJECT_NAME":"ONEWEB-0513","OBJECT_ID":"2022-138U","EPOCH":"2026-06-13T03:29:47.143392","MEAN_MOTION":13.20268434,"ECCENTRICITY":0.000126,"INCLINATION":87.9172,"RA_OF_ASC_NODE":305.7224,"ARG_OF_PERICENTER":69.2987,"MEAN_ANOMALY":290.8281,"EPHEMERIS_TYPE":0,"CLASSIFICATION_TYPE":"U","NORAD_CAT_ID":54131,"ELEMENT_SET_NO":999,"REV_AT_EPOCH":17618,"BSTAR":-0.00016580000000000002,"MEAN_MOTION_DOT":-5.4e-07,"MEAN_MOTION_DDOT":0.0},{"OBJECT_NAME":"ONEWEB-0514","OBJECT_ID":"2022-138V","EPOCH":"2026-06-13T07:20:23.830368","MEAN_MOTION":13.19724845,"ECCENTRICITY":0.0001977,"INCLINATION":87.9176,"RA_OF_ASC_NODE":305.7393,"ARG_OF_PERICENTER":96.965,"MEAN_ANOMALY":263.1708,"EPHEMERIS_TYPE":0,"CLASSIFICATION_TYPE":"U","NORAD_CAT_ID":54132,"ELEMENT_SET_NO":999,"REV_AT_EPOCH":17631,"BSTAR":-4.3530000000000005e-05,"MEAN_MOTION_DOT":-4e-08,"MEAN_MOTION_DDOT":0.0},{"OBJECT_NAME":"ONEWEB-0515","OBJECT_ID":"2022-138W","EPOCH":"2026-06-13T06:07:07.494240","MEAN_MOTION":13.20770562,"ECCENTRICITY":0.0002659,"INCLINATION":87.9197,"RA_OF_ASC_NODE":275.2136,"ARG_OF_PERICENTER":113.5888,"MEAN_ANOMALY":246.5524,"EPHEMERIS_TYPE":0,"CLASSIFICATION_TYPE":"U","NORAD_CAT_ID":54133,"ELEMENT_SET_NO":999,"REV_AT_EPOCH":17878,"BSTAR":0.00030193,"MEAN_MOTION_DOT":1.36e-06,"MEAN_MOTION_DDOT":0.0},{"OBJECT_NAME":"ONEWEB-0516","OBJECT_ID":"2022-138X","EPOCH":"2026-06-13T03:05:38.846112","MEAN_MOTION":13.19724496,"ECCENTRICITY":0.000178,"INCLINATION":87.9164,"RA_OF_ASC_NODE":305.7813,"ARG_OF_PERICENTER":102.1309,"MEAN_ANOMALY":258.0023,"EPHEMERIS_TYPE":0,"CLASSIFICATION_TYPE":"U","NORAD_CAT_ID":54134,"ELEMENT_SET_NO":999,"REV_AT_EPOCH":17629,"BSTAR":-2.4326e-05,"MEAN_MOTION_DOT":3e-08,"MEAN_MOTION_DDOT":0.0},{"OBJECT_NAME":"ONEWEB-0517","OBJECT_ID":"2022-138Y","EPOCH":"2026-06-12T22:57:43.866144","MEAN_MOTION":13.19724217,"ECCENTRICITY":0.0001977,"INCLINATION":87.9172,"RA_OF_ASC_NODE":305.8075,"ARG_OF_PERICENTER":89.3114,"MEAN_ANOMALY":270.8245,"EPHEMERIS_TYPE":0,"CLASSIFICATION_TYPE":"U","NORAD_CAT_ID":54135,"ELEMENT_SET_NO":999,"REV_AT_EPOCH":17627,"BSTAR":7.6552e-05,"MEAN_MOTION_DOT":4.4e-07,"MEAN_MOTION_DDOT":0.0},{"OBJECT_NAME":"ONEWEB-0518","OBJECT_ID":"2022-138Z","EPOCH":"2026-06-13T03:03:24.599520","MEAN_MOTION":13.19727409,"ECCENTRICITY":0.0001798,"INCLINATION":87.9164,"RA_OF_ASC_NODE":305.7836,"ARG_OF_PERICENTER":104.488,"MEAN_ANOMALY":255.6452,"EPHEMERIS_TYPE":0,"CLASSIFICATION_TYPE":"U","NORAD_CAT_ID":54136,"ELEMENT_SET_NO":999,"REV_AT_EPOCH":17629,"BSTAR":6.1373e-05,"MEAN_MOTION_DOT":3.8e-07,"MEAN_MOTION_DDOT":0.0},{"OBJECT_NAME":"ONEWEB-0519","OBJECT_ID":"2022-138AA","EPOCH":"2026-06-13T07:18:08.371584","MEAN_MOTION":13.19726418,"ECCENTRICITY":0.0001923,"INCLINATION":87.9177,"RA_OF_ASC_NODE":305.7391,"ARG_OF_PERICENTER":92.0425,"MEAN_ANOMALY":268.0928,"EPHEMERIS_TYPE":0,"CLASSIFICATION_TYPE":"U","NORAD_CAT_ID":54137,"ELEMENT_SET_NO":999,"REV_AT_EPOCH":17632,"BSTAR":-6.575400000000001e-05,"MEAN_MOTION_DOT":-1.3e-07,"MEAN_MOTION_DDOT":0.0},{"OBJECT_NAME":"ONEWEB-0520","OBJECT_ID":"2022-138AB","EPOCH":"2026-06-12T23:02:17.435328","MEAN_MOTION":13.19724722,"ECCENTRICITY":0.0001571,"INCLINATION":87.9173,"RA_OF_ASC_NODE":305.8079,"ARG_OF_PERICENTER":99.3639,"MEAN_ANOMALY":260.7672,"EPHEMERIS_TYPE":0,"CLASSIFICATION_TYPE":"U","NORAD_CAT_ID":54138,"ELEMENT_SET_NO":999,"REV_AT_EPOCH":17626,"BSTAR":4.0742000000000004e-05,"MEAN_MOTION_DOT":2.9e-07,"MEAN_MOTION_DDOT":0.0},{"OBJECT_NAME":"ONEWEB-0521","OBJECT_ID":"2022-138AC","EPOCH":"2026-06-13T03:28:23.962656","MEAN_MOTION":13.19724911,"ECCENTRICITY":0.0001983,"INCLINATION":87.9175,"RA_OF_ASC_NODE":305.7597,"ARG_OF_PERICENTER":92.2105,"MEAN_ANOMALY":267.9255,"EPHEMERIS_TYPE":0,"CLASSIFICATION_TYPE":"U","NORAD_CAT_ID":54139,"ELEMENT_SET_NO":999,"REV_AT_EPOCH":17623,"BSTAR":-2.5193e-06,"MEAN_MOTION_DOT":1.2e-07,"MEAN_MOTION_DDOT":0.0},{"OBJECT_NAME":"ONEWEB-0522","OBJECT_ID":"2022-138AD","EPOCH":"2026-06-13T02:58:50.114496","MEAN_MOTION":13.19724278,"ECCENTRICITY":0.0001689,"INCLINATION":87.9175,"RA_OF_ASC_NODE":305.7662,"ARG_OF_PERICENTER":97.325,"MEAN_ANOMALY":262.8075,"EPHEMERIS_TYPE":0,"CLASSIFICATION_TYPE":"U","NORAD_CAT_ID":54140,"ELEMENT_SET_NO":999,"REV_AT_EPOCH":17627,"BSTAR":7.306200000000001e-05,"MEAN_MOTION_DOT":4.2e-07,"MEAN_MOTION_DDOT":0.0},{"OBJECT_NAME":"ONEWEB-0523","OBJECT_ID":"2022-138AE","EPOCH":"2026-06-13T05:47:43.947168","MEAN_MOTION":13.20770987,"ECCENTRICITY":0.000279,"INCLINATION":87.9193,"RA_OF_ASC_NODE":275.2265,"ARG_OF_PERICENTER":101.1712,"MEAN_ANOMALY":258.9735,"EPHEMERIS_TYPE":0,"CLASSIFICATION_TYPE":"U","NORAD_CAT_ID":54141,"ELEMENT_SET_NO":999,"REV_AT_EPOCH":17878,"BSTAR":7.325700000000001e-05,"MEAN_MOTION_DOT":4.3e-07,"MEAN_MOTION_DDOT":0.0},{"OBJECT_NAME":"ONEWEB-0524","OBJECT_ID":"2022-138AF","EPOCH":"2026-06-13T07:22:16.875264","MEAN_MOTION":13.20771242,"ECCENTRICITY":0.0002517,"INCLINATION":87.9193,"RA_OF_ASC_NODE":275.2104,"ARG_OF_PERICENTER":118.8843,"MEAN_ANOMALY":241.2543,"EPHEMERIS_TYPE":0,"CLASSIFICATION_TYPE":"U","NORAD_CAT_ID":54142,"ELEMENT_SET_NO":999,"REV_AT_EPOCH":17879,"BSTAR":6.0047e-06,"MEAN_MOTION_DOT":1.5e-07,"MEAN_MOTION_DDOT":0.0},{"OBJECT_NAME":"ONEWEB-0525","OBJECT_ID":"2022-138AG","EPOCH":"2026-06-13T03:26:07.146528","MEAN_MOTION":13.19725173,"ECCENTRICITY":0.0001506,"INCLINATION":87.9173,"RA_OF_ASC_NODE":305.7702,"ARG_OF_PERICENTER":104.1227,"MEAN_ANOMALY":256.0073,"EPHEMERIS_TYPE":0,"CLASSIFICATION_TYPE":"U","NORAD_CAT_ID":54143,"ELEMENT_SET_NO":999,"REV_AT_EPOCH":17629,"BSTAR":-1.1704000000000002e-05,"MEAN_MOTION_DOT":8e-08,"MEAN_MOTION_DDOT":0.0},{"OBJECT_NAME":"ONEWEB-0526","OBJECT_ID":"2022-138AH","EPOCH":"2026-06-12T22:46:21.638784","MEAN_MOTION":13.19725908,"ECCENTRICITY":0.0001753,"INCLINATION":87.9173,"RA_OF_ASC_NODE":305.8092,"ARG_OF_PERICENTER":101.6549,"MEAN_ANOMALY":258.478,"EPHEMERIS_TYPE":0,"CLASSIFICATION_TYPE":"U","NORAD_CAT_ID":54144,"ELEMENT_SET_NO":999,"REV_AT_EPOCH":17624,"BSTAR":-3.4458e-05,"MEAN_MOTION_DOT":-1e-08,"MEAN_MOTION_DDOT":0.0},{"OBJECT_NAME":"ONEWEB-0529","OBJECT_ID":"2022-138AJ","EPOCH":"2026-06-12T22:50:54.369888","MEAN_MOTION":13.19724153,"ECCENTRICITY":0.0001615,"INCLINATION":87.9165,"RA_OF_ASC_NODE":305.8179,"ARG_OF_PERICENTER":100.8109,"MEAN_ANOMALY":259.3206,"EPHEMERIS_TYPE":0,"CLASSIFICATION_TYPE":"U","NORAD_CAT_ID":54145,"ELEMENT_SET_NO":999,"REV_AT_EPOCH":17626,"BSTAR":5.791500000000001e-05,"MEAN_MOTION_DOT":3.6e-07,"MEAN_MOTION_DDOT":0.0},{"OBJECT_NAME":"ONEWEB-0531","OBJECT_ID":"2022-138AK","EPOCH":"2026-06-12T20:08:21.751296","MEAN_MOTION":13.20771574,"ECCENTRICITY":0.0002795,"INCLINATION":87.919,"RA_OF_ASC_NODE":275.3017,"ARG_OF_PERICENTER":107.0976,"MEAN_ANOMALY":253.0464,"EPHEMERIS_TYPE":0,"CLASSIFICATION_TYPE":"U","NORAD_CAT_ID":54146,"ELEMENT_SET_NO":999,"REV_AT_EPOCH":17873,"BSTAR":-0.00012728000000000001,"MEAN_MOTION_DOT":-3.9e-07,"MEAN_MOTION_DDOT":0.0},{"OBJECT_NAME":"ONEWEB-0535","OBJECT_ID":"2022-138AL","EPOCH":"2026-06-13T03:17:01.243680","MEAN_MOTION":13.19724491,"ECCENTRICITY":0.0002173,"INCLINATION":87.9174,"RA_OF_ASC_NODE":305.7653,"ARG_OF_PERICENTER":96.3804,"MEAN_ANOMALY":263.7576,"EPHEMERIS_TYPE":0,"CLASSIFICATION_TYPE":"U","NORAD_CAT_ID":54147,"ELEMENT_SET_NO":999,"REV_AT_EPOCH":17630,"BSTAR":-7.9656e-06,"MEAN_MOTION_DOT":1e-07,"MEAN_MOTION_DDOT":0.0},{"OBJECT_NAME":"ONEWEB-0536","OBJECT_ID":"2022-138AM","EPOCH":"2026-06-13T06:43:29.504640","MEAN_MOTION":13.20771145,"ECCENTRICITY":0.0002911,"INCLINATION":87.9179,"RA_OF_ASC_NODE":275.2366,"ARG_OF_PERICENTER":110.7407,"MEAN_ANOMALY":249.4038,"EPHEMERIS_TYPE":0,"CLASSIFICATION_TYPE":"U","NORAD_CAT_ID":54148,"ELEMENT_SET_NO":999,"REV_AT_EPOCH":17878,"BSTAR":0.00013093,"MEAN_MOTION_DOT":6.6e-07,"MEAN_MOTION_DDOT":0.0},{"OBJECT_NAME":"ONEWEB-0527","OBJECT_ID":"2022-166A","EPOCH":"2026-06-13T08:00:01.999872","MEAN_MOTION":13.21835979,"ECCENTRICITY":0.0001909,"INCLINATION":87.9258,"RA_OF_ASC_NODE":244.7639,"ARG_OF_PERICENTER":101.4604,"MEAN_ANOMALY":340.7503,"EPHEMERIS_TYPE":0,"CLASSIFICATION_TYPE":"U","NORAD_CAT_ID":54642,"ELEMENT_SET_NO":999,"REV_AT_EPOCH":514,"BSTAR":-0.09979500000000001,"MEAN_MOTION_DOT":-0.00041022,"MEAN_MOTION_DDOT":0.0}]